start=new Date('2023-03-29T00:00:00.000Z').valueOf();
sats=[{"ECCENTRICITY":"0.00012520","MEAN_ANOMALY":"248.7896","OBJECT_NAME":"STARLINK-5057","SEMIMAJOR_AXIS":"6917.864","COUNTRY_CODE":"US","MEAN_MOTION_DOT":"0.00003295","OBJECT_TYPE":"PAYLOAD","TIME_SYSTEM":"UTC","TLE_LINE1":"1 53908U 22119Y   23087.76384043  .00003295  00000-0  22497-3 0  9991","PERIAPSIS":"538.862","MEAN_MOTION":"15.08845521","REV_AT_EPOCH":"2924","OBJECT_ID":"2022-119Y","TLE_LINE2":"2 53908  53.2174 108.7736 0001252 111.3230 248.7896 15.08845521 29242","EPOCH":"2023-03-28T18:19:55.813152","SITE":"AFETR","ELEMENT_SET_NO":"999","NORAD_CAT_ID":"53908","INCLINATION":"53.2174","EPHEMERIS_TYPE":"0","RA_OF_ASC_NODE":"108.7736","PERIOD":"95.437","FILE":"3873921","CLASSIFICATION_TYPE":"U","BSTAR":"0.00022497000000","ARG_OF_PERICENTER":"111.3230","REF_FRAME":"TEME","CENTER_NAME":"EARTH","MEAN_ELEMENT_THEORY":"SGP4","DECAY_DATE":null,"MEAN_MOTION_DDOT":"0.0000000000000","GP_ID":"229068795","APOAPSIS":"540.595","RCS_SIZE":"LARGE","LAUNCH_DATE":"2022-09-24"},{"ECCENTRICITY":"0.00015910","OBJECT_NAME":"STARLINK-4796","MEAN_ANOMALY":"274.2148","TIME_SYSTEM":"UTC","OBJECT_TYPE":"PAYLOAD","COUNTRY_CODE":"US","MEAN_MOTION_DOT":"-0.00002992","SEMIMAJOR_AXIS":"6917.869","TLE_LINE1":"1 53909U 22119Z   23087.77488733 -.00002992  00000-0 -16994-3 0  9994","MEAN_MOTION":"15.08843705","REV_AT_EPOCH":"2924","PERIAPSIS":"538.633","OBJECT_ID":"2022-119Z","TLE_LINE2":"2 53909  53.2181 108.8349 0001591  85.9026 274.2148 15.08843705 29243","ELEMENT_SET_NO":"999","SITE":"AFETR","EPOCH":"2023-03-28T18:35:50.265312","EPHEMERIS_TYPE":"0","NORAD_CAT_ID":"53909","INCLINATION":"53.2181","FILE":"3873921","PERIOD":"95.437","RA_OF_ASC_NODE":"108.8349","ARG_OF_PERICENTER":"85.9026","CLASSIFICATION_TYPE":"U","BSTAR":"-0.00016994000000","REF_FRAME":"TEME","CENTER_NAME":"EARTH","MEAN_MOTION_DDOT":"0.0000000000000","DECAY_DATE":null,"MEAN_ELEMENT_THEORY":"SGP4","LAUNCH_DATE":"2022-09-24","RCS_SIZE":"LARGE","APOAPSIS":"540.835","GP_ID":"229070047"},{"RA_OF_ASC_NODE":"108.7268","FILE":"3873921","PERIOD":"95.437","CLASSIFICATION_TYPE":"U","BSTAR":"0.00040702000000","ARG_OF_PERICENTER":"92.9351","EPOCH":"2023-03-28T18:09:18.792864","ELEMENT_SET_NO":"999","SITE":"AFETR","INCLINATION":"53.2162","NORAD_CAT_ID":"53910","EPHEMERIS_TYPE":"0","DECAY_DATE":null,"MEAN_ELEMENT_THEORY":"SGP4","MEAN_MOTION_DDOT":"0.0000000000000","RCS_SIZE":"LARGE","GP_ID":"229069775","APOAPSIS":"540.574","LAUNCH_DATE":"2022-09-24","CENTER_NAME":"EARTH","REF_FRAME":"TEME","SEMIMAJOR_AXIS":"6917.845","TIME_SYSTEM":"UTC","COUNTRY_CODE":"US","MEAN_MOTION_DOT":"0.00006198","OBJECT_TYPE":"PAYLOAD","TLE_LINE1":"1 53910U 22119AA  23087.75646751  .00006198  00000-0  40702-3 0  9994","ECCENTRICITY":"0.00012490","MEAN_ANOMALY":"267.1784","OBJECT_NAME":"STARLINK-5056","TLE_LINE2":"2 53910  53.2162 108.7268 0001249  92.9351 267.1784 15.08851732 29248","PERIAPSIS":"538.845","REV_AT_EPOCH":"2924","MEAN_MOTION":"15.08851732","OBJECT_ID":"2022-119AA"},{"MEAN_MOTION":"15.08848029","REV_AT_EPOCH":"2924","PERIAPSIS":"538.763","OBJECT_ID":"2022-119AB","TLE_LINE2":"2 53911  53.2162 108.7887 0001385  83.6624 276.4526 15.08848029 29249","ECCENTRICITY":"0.00013850","OBJECT_NAME":"STARLINK-5048","MEAN_ANOMALY":"276.4526","TIME_SYSTEM":"UTC","OBJECT_TYPE":"PAYLOAD","COUNTRY_CODE":"US","MEAN_MOTION_DOT":"0.00000344","SEMIMAJOR_AXIS":"6917.856","TLE_LINE1":"1 53911U 22119AB  23087.76752304  .00000344  00000-0  39680-4 0  9999","REF_FRAME":"TEME","CENTER_NAME":"EARTH","MEAN_MOTION_DDOT":"0.0000000000000","DECAY_DATE":null,"MEAN_ELEMENT_THEORY":"SGP4","LAUNCH_DATE":"2022-09-24","RCS_SIZE":"LARGE","APOAPSIS":"540.679","GP_ID":"229068545","ELEMENT_SET_NO":"999","SITE":"AFETR","EPOCH":"2023-03-28T18:25:13.990656","EPHEMERIS_TYPE":"0","NORAD_CAT_ID":"53911","INCLINATION":"53.2162","FILE":"3873921","PERIOD":"95.437","RA_OF_ASC_NODE":"108.7887","ARG_OF_PERICENTER":"83.6624","BSTAR":"0.00003968000000","CLASSIFICATION_TYPE":"U"},{"SITE":"AFETR","ELEMENT_SET_NO":"999","EPOCH":"2023-03-28T18:46:20.250912","EPHEMERIS_TYPE":"0","NORAD_CAT_ID":"53912","INCLINATION":"53.2154","FILE":"3873921","PERIOD":"95.436","RA_OF_ASC_NODE":"108.1853","ARG_OF_PERICENTER":"72.6866","CLASSIFICATION_TYPE":"U","BSTAR":"0.00077046000000","CENTER_NAME":"EARTH","REF_FRAME":"TEME","MEAN_MOTION_DDOT":"0.0000000000000","DECAY_DATE":null,"MEAN_ELEMENT_THEORY":"SGP4","LAUNCH_DATE":"2022-09-24","RCS_SIZE":"LARGE","APOAPSIS":"540.868","GP_ID":"229069296","ECCENTRICITY":"0.00017040","OBJECT_NAME":"STARLINK-5059","MEAN_ANOMALY":"287.4313","TIME_SYSTEM":"UTC","MEAN_MOTION_DOT":"0.00012001","COUNTRY_CODE":"US","OBJECT_TYPE":"PAYLOAD","SEMIMAJOR_AXIS":"6917.825","TLE_LINE1":"1 53912U 22119AC  23087.78217883  .00012001  00000-0  77046-3 0  9990","REV_AT_EPOCH":"2925","MEAN_MOTION":"15.08858251","PERIAPSIS":"538.511","OBJECT_ID":"2022-119AC","TLE_LINE2":"2 53912  53.2154 108.1853 0001704  72.6866 287.4313 15.08858251 29254"},{"ARG_OF_PERICENTER":"106.8937","BSTAR":"-0.00018216000000","CLASSIFICATION_TYPE":"U","FILE":"3873921","PERIOD":"95.438","RA_OF_ASC_NODE":"108.6754","EPHEMERIS_TYPE":"0","INCLINATION":"53.2169","NORAD_CAT_ID":"53913","SITE":"AFETR","ELEMENT_SET_NO":"999","EPOCH":"2023-03-28T17:58:41.925504","LAUNCH_DATE":"2022-09-24","RCS_SIZE":"LARGE","APOAPSIS":"540.443","GP_ID":"229069547","MEAN_MOTION_DDOT":"0.0000000000000","DECAY_DATE":null,"MEAN_ELEMENT_THEORY":"SGP4","REF_FRAME":"TEME","CENTER_NAME":"EARTH","TLE_LINE1":"1 53913U 22119AD  23087.74909636 -.00003186  00000-0 -18216-3 0  9991","TIME_SYSTEM":"UTC","OBJECT_TYPE":"PAYLOAD","COUNTRY_CODE":"US","MEAN_MOTION_DOT":"-0.00003186","SEMIMAJOR_AXIS":"6917.884","OBJECT_NAME":"STARLINK-5053","MEAN_ANOMALY":"253.2166","ECCENTRICITY":"0.00010030","TLE_LINE2":"2 53913  53.2169 108.6754 0001003 106.8937 253.2166 15.08838680 29247","OBJECT_ID":"2022-119AD","REV_AT_EPOCH":"2924","MEAN_MOTION":"15.08838680","PERIAPSIS":"539.056"},{"SEMIMAJOR_AXIS":"6917.860","TIME_SYSTEM":"UTC","OBJECT_TYPE":"PAYLOAD","COUNTRY_CODE":"US","MEAN_MOTION_DOT":"-0.00001400","TLE_LINE1":"1 53914U 22119AE  23087.74541348 -.00001400  00000-0 -69845-4 0  9996","ECCENTRICITY":"0.00016630","MEAN_ANOMALY":"275.7690","OBJECT_NAME":"STARLINK-5040","TLE_LINE2":"2 53914  53.2165 108.6533 0001663  84.3492 275.7690 15.08846806 29247","PERIAPSIS":"538.574","REV_AT_EPOCH":"2924","MEAN_MOTION":"15.08846806","OBJECT_ID":"2022-119AE","RA_OF_ASC_NODE":"108.6533","FILE":"3873921","PERIOD":"95.437","CLASSIFICATION_TYPE":"U","BSTAR":"-0.00006984500000","ARG_OF_PERICENTER":"84.3492","EPOCH":"2023-03-28T17:53:23.724672","ELEMENT_SET_NO":"999","SITE":"AFETR","INCLINATION":"53.2165","NORAD_CAT_ID":"53914","EPHEMERIS_TYPE":"0","DECAY_DATE":null,"MEAN_ELEMENT_THEORY":"SGP4","MEAN_MOTION_DDOT":"0.0000000000000","RCS_SIZE":"LARGE","APOAPSIS":"540.875","GP_ID":"229070276","LAUNCH_DATE":"2022-09-24","CENTER_NAME":"EARTH","REF_FRAME":"TEME"},{"SEMIMAJOR_AXIS":"6917.856","TIME_SYSTEM":"UTC","OBJECT_TYPE":"PAYLOAD","COUNTRY_CODE":"US","MEAN_MOTION_DOT":"-0.00001365","TLE_LINE1":"1 53915U 22119AF  23087.76015356 -.00001365  00000-0 -67651-4 0  9997","ECCENTRICITY":"0.00013400","MEAN_ANOMALY":"279.5936","OBJECT_NAME":"STARLINK-5017","TLE_LINE2":"2 53915  53.2168 108.7472 0001340  80.5207 279.5936 15.08847871 29246","PERIAPSIS":"538.794","MEAN_MOTION":"15.08847871","REV_AT_EPOCH":"2924","OBJECT_ID":"2022-119AF","RA_OF_ASC_NODE":"108.7472","FILE":"3873921","PERIOD":"95.437","CLASSIFICATION_TYPE":"U","BSTAR":"-0.00006765100000","ARG_OF_PERICENTER":"80.5207","EPOCH":"2023-03-28T18:14:37.267584","ELEMENT_SET_NO":"999","SITE":"AFETR","INCLINATION":"53.2168","NORAD_CAT_ID":"53915","EPHEMERIS_TYPE":"0","DECAY_DATE":null,"MEAN_ELEMENT_THEORY":"SGP4","MEAN_MOTION_DDOT":"0.0000000000000","RCS_SIZE":"LARGE","GP_ID":"229069046","APOAPSIS":"540.648","LAUNCH_DATE":"2022-09-24","REF_FRAME":"TEME","CENTER_NAME":"EARTH"},{"PERIAPSIS":"538.878","MEAN_MOTION":"15.08844965","REV_AT_EPOCH":"2953","OBJECT_ID":"2022-119AG","TLE_LINE2":"2 53916  53.2179  88.5917 0001232  81.8825 278.2307 15.08844965 29539","ECCENTRICITY":"0.00012320","MEAN_ANOMALY":"278.2307","OBJECT_NAME":"STARLINK-5051","SEMIMAJOR_AXIS":"6917.865","TIME_SYSTEM":"UTC","COUNTRY_CODE":"US","OBJECT_TYPE":"PAYLOAD","MEAN_MOTION_DOT":"-0.00000985","TLE_LINE1":"1 53916U 22119AG  23087.72243078 -.00000985  00000-0 -43823-4 0  9990","REF_FRAME":"TEME","CENTER_NAME":"EARTH","DECAY_DATE":null,"MEAN_ELEMENT_THEORY":"SGP4","MEAN_MOTION_DDOT":"0.0000000000000","RCS_SIZE":"LARGE","APOAPSIS":"540.582","GP_ID":"229068796","LAUNCH_DATE":"2022-09-24","EPOCH":"2023-03-28T17:20:18.019392","ELEMENT_SET_NO":"999","SITE":"AFETR","INCLINATION":"53.2179","NORAD_CAT_ID":"53916","EPHEMERIS_TYPE":"0","RA_OF_ASC_NODE":"88.5917","FILE":"3873921","PERIOD":"95.437","CLASSIFICATION_TYPE":"U","BSTAR":"-0.00004382300000","ARG_OF_PERICENTER":"81.8825"},{"SEMIMAJOR_AXIS":"6917.858","TIME_SYSTEM":"UTC","OBJECT_TYPE":"PAYLOAD","COUNTRY_CODE":"US","MEAN_MOTION_DOT":"0.00009341","TLE_LINE1":"1 53917U 22119AH  23087.75279326  .00009341  00000-0  60408-3 0  9999","ECCENTRICITY":"0.00011160","MEAN_ANOMALY":"255.6592","OBJECT_NAME":"STARLINK-5036","TLE_LINE2":"2 53917  53.2174 108.7032 0001116 104.4524 255.6592 15.08847273 29245","PERIAPSIS":"538.951","REV_AT_EPOCH":"2924","MEAN_MOTION":"15.08847273","OBJECT_ID":"2022-119AH","RA_OF_ASC_NODE":"108.7032","FILE":"3873921","PERIOD":"95.437","CLASSIFICATION_TYPE":"U","BSTAR":"0.00060408000000","ARG_OF_PERICENTER":"104.4524","EPOCH":"2023-03-28T18:04:01.337664","ELEMENT_SET_NO":"999","SITE":"AFETR","NORAD_CAT_ID":"53917","INCLINATION":"53.2174","EPHEMERIS_TYPE":"0","DECAY_DATE":null,"MEAN_ELEMENT_THEORY":"SGP4","MEAN_MOTION_DDOT":"0.0000000000000","RCS_SIZE":"LARGE","APOAPSIS":"540.495","GP_ID":"229070048","LAUNCH_DATE":"2022-09-24","REF_FRAME":"TEME","CENTER_NAME":"EARTH"}];
